QIANFAN-89              
1 63175U 25046S   25318.80622284  .00000128  00000+0  17954-3 0  9999
2 63175  88.9755 322.9317 0015726 200.3418 159.7108 13.50977036 43630
QIANFAN-90              
1 63176U 25046T   25318.83495711  .00000078  00000+0  10157-3 0  9998
2 63176  88.9755 322.9012 0012743 196.8736 163.1993 13.50974592 43658
QIANFAN-91              
1 66033U 25233A   25318.76529882  .00001321  00000+0  58277-3 0  9997
2 66033  88.9959  65.2533 0017358 121.3979 238.8913 14.22731591  4056
QIANFAN-92              
1 66034U 25233B   25318.62396559  .00001097  00000+0  48637-3 0  9995
2 66034  88.9958  65.2691 0016494 123.0711 237.2067 14.22369346  4030
QIANFAN-93              
1 66035U 25233C   25318.55045181  .00001218  00000+0  53524-3 0  9996
2 66035  88.9960  65.2768 0016371 124.8109 235.4626 14.22885735  4028
QIANFAN-94              
1 66036U 25233D   25318.62181117  .00001110  00000+0  49238-3 0  9993
2 66036  88.9960  65.2692 0016050 122.2945 237.9803 14.22350782  4033
QIANFAN-95              
1 66037U 25233E   25318.75769189  .00001347  00000+0  55622-3 0  9995
2 66037  88.9960  65.2521 0016176 124.0050 236.2683 14.26176385  4050
QIANFAN-96              
1 66038U 25233F   25318.55094773  .00000970  00000+0  42982-3 0  9990
2 66038  88.9959  65.2770 0016690 125.3092 234.9663 14.22262821  4023
